OBJECT_NAME,OBJECT_ID,EPOCH,MEAN_MOTION,ECCENTRICITY,INCLINATION,RA_OF_ASC_NODE,ARG_OF_PERICENTER,MEAN_ANOMALY,EPHEMERIS_TYPE,CLASSIFICATION_TYPE,NORAD_CAT_ID,ELEMENT_SET_NO,REV_AT_EPOCH,BSTAR,MEAN_MOTION_DOT,MEAN_MOTION_DDOT
TERRA,1999-068A,2019-10-23T10:28:22.025856,14.57112044,.0001384,98.2053,9.0322,84.8241,275.3120,0,U,25994,999,5565,.16732E-4,.3E-6,0
TERRA,1999-068A,2019-10-23T18:42:47.244672,14.57112140,.0001406,98.2058,9.3714,86.9689,273.1679,0,U,25994,999,5570,.15597E-4,.25E-6,0
TERRA,1999-068A,2019-10-23T22:00:33.323904,14.57111915,.0001345,98.2064,9.5070,84.5192,275.6142,0,U,25994,999,5572,.15155E-4,.23E-6,0
TERRA,1999-068A,2019-10-24T02:57:12.494592,14.57111988,.0001321,98.2069,9.7097,85.0216,275.1142,0,U,25994,999,5575,.1584E-4,.26E-6,0
TERRA,1999-068A,2019-10-24T06:14:58.573824,14.57112096,.0001348,98.2072,9.8444,89.0198,271.1166,0,U,25994,999,5577,.19017E-4,.4E-6,0
TERRA,1999-068A,2019-10-24T17:47:09.895200,14.57111428,.0001295,98.2079,10.3190,84.5211,275.6116,0,U,25994,999,5584,-.13492E-4,-.106E-5,0
TERRA,1999-068A,2019-10-24T21:04:56.024544,14.57111036,.0001291,98.2084,10.4544,85.0599,275.0729,0,U,25994,999,5586,-.23328E-4,-.15E-5,0
TERRA,1999-068A,2019-10-25T02:01:35.207328,14.57111018,.0001298,98.2093,10.6573,86.5776,273.5580,0,U,25994,999,5589,-.24577E-4,-.156E-5,0
TERRA,1999-068A,2019-10-25T10:16:00.450336,14.57110804,.0001322,98.2097,10.9947,84.8175,275.3169,0,U,25994,999,5594,-.32384E-4,-.191E-5,0
TERRA,1999-068A,2019-10-25T18:30:25.714080,14.57110715,.0001343,98.2102,11.3339,86.9252,273.2107,0,U,25994,999,5599,-.33234E-4,-.195E-5,0
TERRA,1999-068A,2019-10-25T21:48:11.807136,14.57110534,.0001321,98.2109,11.4701,83.8203,276.3131,0,U,25994,999,5601,-.32574E-4,-.192E-5,0
TERRA,1999-068A,2019-10-26T02:44:50.989056,14.57110480,.0001347,98.2115,11.6728,83.9378,276.1976,0,U,25994,999,5604,-.3432E-4,-.2E-5,0
TERRA,1999-068A,2019-10-26T10:59:16.223424,14.57110761,.0001319,98.2119,12.0107,83.0786,277.0568,0,U,25994,999,5609,-.20403E-4,-.137E-5,0
TERRA,1999-068A,2019-10-26T17:34:48.389664,14.57110873,.0001388,98.2128,12.2830,86.5291,273.6064,0,U,25994,999,5613,-.16226E-4,-.118E-5,0
TERRA,1999-068A,2019-10-26T22:31:27.546528,14.57110617,.0001397,98.2132,12.4864,87.2506,272.8838,0,U,25994,999,5616,-.19128E-4,-.131E-5,0
TERRA,1999-068A,2019-10-27T01:49:13.674144,14.57110637,.0001393,98.2138,12.6220,87.1390,272.9973,0,U,25994,999,5618,-.1852E-4,-.129E-5,0
TERRA,1999-068A,2019-10-27T10:03:38.904192,14.57110668,.000137,98.2143,12.9602,86.1087,274.0266,0,U,25994,999,5623,-.18033E-4,-.127E-5,0
TERRA,1999-068A,2019-10-27T18:18:04.162752,14.57110667,.0001419,98.2151,13.2998,88.3434,271.7935,0,U,25994,999,5628,-.16854E-4,-.121E-5,0
TERRA,1999-068A,2019-10-27T21:35:50.254080,14.57110626,.0001457,98.2160,13.4360,84.7688,275.3655,0,U,25994,999,5630,-.70149E-5,-.77E-6,0
TERRA,1999-068A,2019-10-28T02:32:29.445504,14.57111051,.0001426,98.2167,13.6392,84.7140,275.4244,0,U,25994,999,5633,.11168E-4,.5E-7,0
TERRA,1999-068A,2019-10-28T09:08:01.580640,14.57111355,.0001409,98.2172,13.9097,82.9860,277.1497,0,U,25994,999,5637,.20266E-4,.46E-6,0
TERRA,1999-068A,2019-10-28T17:22:26.824512,14.57111420,.0001444,98.2173,14.2483,84.7516,275.3853,0,U,25994,999,5642,.16571E-4,.29E-6,0
TERRA,1999-068A,2019-10-28T20:40:12.910656,14.57111269,.0001429,98.2174,14.3841,83.1309,277.0038,0,U,25994,999,5644,.1543E-4,.24E-6,0
TERRA,1999-068A,2019-10-29T03:15:45.129600,14.57111439,.0001421,98.2173,14.6553,83.6517,276.4852,0,U,25994,999,5648,.20815E-4,.48E-6,0
TERRA,1999-068A,2019-10-29T09:51:17.293248,14.57111669,.0001421,98.2173,14.9263,82.7340,277.4022,0,U,25994,999,5652,.24875E-4,.67E-6,0
TERRA,1999-068A,2019-10-29T18:05:42.520704,14.57111769,.0001425,98.2175,15.2653,82.4244,277.7118,0,U,25994,999,5657,.24528E-4,.65E-6,0
TERRA,1999-068A,2019-10-29T21:23:28.610304,14.57111491,.0001439,98.2172,15.4006,82.5138,277.6201,0,U,25994,999,5659,.19317E-4,.42E-6,0
TERRA,1999-068A,2019-10-30T02:20:07.792224,14.57111744,.0001424,98.2171,15.6036,81.5839,278.5533,0,U,25994,999,5662,.26011E-4,.72E-6,0
TERRA,1999-068A,2019-10-30T08:55:39.917856,14.57112153,.0001399,98.2171,15.8749,82.5494,277.5863,0,U,25994,999,5666,.36826E-4,.121E-5,0
TERRA,1999-068A,2019-10-30T18:48:58.179744,14.57112524,.0001449,98.2170,16.2814,84.7131,275.4238,0,U,25994,999,5672,.48122E-4,.171E-5,0
TERRA,1999-068A,2019-10-30T22:06:44.259840,14.57112074,.0001448,98.2167,16.4164,84.0247,276.1086,0,U,25994,999,5674,.329E-4,.103E-5,0
TERRA,1999-068A,2019-10-31T03:03:23.445216,14.57112373,.0001436,98.2165,16.6196,84.1105,276.0271,0,U,25994,999,5677,.40708E-4,.138E-5,0
TERRA,1999-068A,2019-10-31T04:42:16.466688,14.57112376,.0001432,98.2165,16.6875,83.7338,276.4026,0,U,25994,999,5678,.37669E-4,.124E-5,0
TERRA,1999-068A,2019-10-31T17:53:20.787072,14.57112358,.0001369,98.2162,17.2288,84.2033,275.9312,0,U,25994,999,5686,.24978E-4,.67E-6,0
TERRA,1999-068A,2019-10-31T21:11:06.893088,14.57112096,.0001383,98.2162,17.3641,83.3152,276.8182,0,U,25994,999,5688,.19122E-4,.41E-6,0
TERRA,1999-068A,2019-11-01T02:07:46.066368,14.57112404,.0001359,98.2160,17.5671,83.5405,276.5965,0,U,25994,999,5691,.282E-4,.82E-6,0
TERRA,1999-068A,2019-11-01T10:22:11.255808,14.57112459,.0001365,98.2159,17.9058,83.4162,276.7194,0,U,25994,999,5696,.23397E-4,.6E-6,0
TERRA,1999-068A,2019-11-01T18:36:36.459072,14.57112800,.0001403,98.2158,18.2442,85.1545,274.9821,0,U,25994,999,5701,.32922E-4,.103E-5,0
TERRA,1999-068A,2019-11-01T21:54:22.533984,14.57112424,.0001383,98.2155,18.3793,84.4233,275.7097,0,U,25994,999,5703,.23904E-4,.62E-6,0
TERRA,1999-068A,2019-11-02T02:51:01.710720,14.57112694,.0001368,98.2153,18.5824,84.8317,275.3054,0,U,25994,999,5706,.30464E-4,.92E-6,0
TERRA,1999-068A,2019-11-02T09:26:33.820800,14.57113047,.0001358,98.2153,18.8535,86.9630,273.1725,0,U,25994,999,5710,.37668E-4,.124E-5,0
TERRA,1999-068A,2019-11-02T17:40:59.005056,14.57112990,.0001364,98.2153,19.1921,88.2093,271.9251,0,U,25994,999,5715,.27125E-4,.77E-6,0
TERRA,1999-068A,2019-11-02T22:37:38.148960,14.57112736,.0001365,98.2154,19.3955,86.6411,273.4920,0,U,25994,999,5718,.22089E-4,.54E-6,0
TERRA,1999-068A,2019-11-03T01:55:24.273120,14.57112909,.0001353,98.2153,19.5308,87.0674,273.0688,0,U,25994,999,5720,.27771E-4,.8E-6,0
TERRA,1999-068A,2019-11-03T10:09:49.457376,14.57113059,.0001355,98.2154,19.8694,86.5124,273.6229,0,U,25994,999,5725,.26819E-4,.75E-6,0
TERRA,1999-068A,2019-11-03T16:45:21.618432,14.57113116,.0001364,98.2153,20.1402,87.7119,272.4238,0,U,25994,999,5729,.23996E-4,.63E-6,0
TERRA,1999-068A,2019-11-03T21:42:00.739008,14.57112838,.0001346,98.2152,20.3433,84.4764,275.6562,0,U,25994,999,5732,.18812E-4,.39E-6,0
TERRA,1999-068A,2019-11-04T00:59:46.867488,14.57113145,.0001351,98.2150,20.4787,84.2635,275.8730,0,U,25994,999,5734,.28886E-4,.85E-6,0
TERRA,1999-068A,2019-11-04T10:53:05.074080,14.57113434,.000134,98.2149,20.8853,82.9069,277.2283,0,U,25994,999,5740,.31461E-4,.96E-6,0
TERRA,1999-068A,2019-11-04T17:28:37.223040,14.57113479,.0001345,98.2149,21.1561,82.5280,277.6068,0,U,25994,999,5744,.27596E-4,.79E-6,0
TERRA,1999-068A,2019-11-04T22:25:16.347936,14.57113439,.0001383,98.2150,21.3594,81.7826,278.3511,0,U,25994,999,5747,.32198E-4,.1E-5,0
TERRA,1999-068A,2019-11-05T01:43:02.457408,14.57113499,.0001368,98.2150,21.4952,82.7843,277.3518,0,U,25994,999,5749,.32379E-4,.101E-5,0
TERRA,1999-068A,2019-11-05T09:57:27.631296,14.57113473,.000138,98.2150,21.8336,82.2734,277.8613,0,U,25994,999,5754,.22605E-4,.57E-6,0
TERRA,1999-068A,2019-11-05T16:32:59.811360,14.57113366,.0001369,98.2151,22.1046,81.5184,278.6170,0,U,25994,999,5758,.14523E-4,.2E-6,0
TERRA,1999-068A,2019-11-05T21:29:38.931936,14.57113150,.0001392,98.2152,22.3082,79.7716,280.3616,0,U,25994,999,5761,.12443E-4,.11E-6,0
TERRA,1999-068A,2019-11-06T02:26:18.094848,14.57113234,.0001407,98.2151,22.5110,78.9838,281.1522,0,U,25994,999,5764,.12202E-4,.1E-6,0
TERRA,1999-068A,2019-11-06T10:40:43.264416,14.57113539,.000138,98.2149,22.8499,78.7249,281.4106,0,U,25994,999,5769,.19561E-4,.43E-6,0
TERRA,1999-068A,2019-11-06T17:16:15.409056,14.57113583,.0001378,98.2149,23.1208,79.0199,281.1155,0,U,25994,999,5773,.16382E-4,.28E-6,0
TERRA,1999-068A,2019-11-06T20:34:01.488288,14.57113528,.0001397,98.2151,23.2565,78.0588,282.0754,0,U,25994,999,5775,.18966E-4,.4E-6,0
TERRA,1999-068A,2019-11-07T03:09:33.668352,14.57113620,.0001375,98.2151,23.5279,79.2079,280.9282,0,U,25994,999,5779,.21398E-4,.51E-6,0
TERRA,1999-068A,2019-11-07T09:45:05.807808,14.57113541,.0001392,98.2151,23.7986,76.4493,283.6851,0,U,25994,999,5783,.12282E-4,.1E-6,0
TERRA,1999-068A,2019-11-07T16:20:37.971456,14.57113423,.0001373,98.2152,24.0698,77.1293,283.0057,0,U,25994,999,5787,.20513E-5,-.36E-6,0
TERRA,1999-068A,2019-11-08T18:42:46.617408,14.57113363,.0001417,98.2151,25.1535,74.2000,285.9342,0,U,25994,999,5803,.16447E-5,-.38E-6,0
TERRA,1999-068A,2019-11-09T01:18:18.800064,14.57113700,.0001437,98.2152,25.4245,74.3442,285.7924,0,U,25994,999,5807,.18492E-4,.38E-6,0
TERRA,1999-068A,2019-11-09T16:08:16.062432,14.57113991,.0001408,98.2153,26.0341,76.4282,283.7069,0,U,25994,999,5816,.1389E-4,.17E-6,0
TERRA,1999-068A,2019-11-09T21:04:55.182144,14.57113657,.0001412,98.2155,26.2373,76.3134,283.8196,0,U,25994,999,5819,.70303E-5,-.14E-6,0
TERRA,1999-068A,2019-11-10T02:01:34.340736,14.57113765,.0001395,98.2154,26.4406,76.8680,283.2684,0,U,25994,999,5822,.94551E-5,-.3E-7,0
TERRA,1999-068A,2019-11-10T08:37:06.463776,14.57113826,.0001376,98.2154,26.7114,77.1568,282.9785,0,U,25994,999,5826,.73305E-5,-.12E-6,0
TERRA,1999-068A,2019-11-10T16:51:31.641120,14.57114026,.0001409,98.2155,27.0501,80.4194,279.7171,0,U,25994,999,5831,.11865E-4,.8E-7,0
TERRA,1999-068A,2019-11-10T20:09:17.703936,14.57113780,.0001392,98.2155,27.1856,75.8832,284.2500,0,U,25994,999,5833,.55782E-5,-.2E-6,0
TERRA,1999-068A,2019-11-11T01:05:56.855616,14.57114174,.0001392,98.2156,27.3889,77.6385,282.4985,0,U,25994,999,5836,.23746E-4,.62E-6,0
TERRA,1999-068A,2019-11-11T09:20:22.010496,14.57114473,.0001371,98.2158,27.7274,79.0092,281.1278,0,U,25994,999,5841,.296E-4,.88E-6,0
